SL-3 R/B                
1 13403U 82079B   26027.97234954  .00006630  00000+0  26872-3 0  9999
2 13403  81.1448 241.1397 0024484 305.6707  54.2247 15.24217271371496
SL-14 R/B               
1 13553U 82092B   26027.51976186  .00001000  00000+0  10952-3 0  9998
2 13553  82.5687 179.8951 0021831  78.7048 347.9737 14.86615848322811
SL-3 R/B                
1 13819U 83010B   26027.52134509  .00018431  00000+0  38905-3 0  9994
2 13819  81.1024  52.6710 0016935 185.0468 175.0609 15.44912709351589
SL-3 R/B                
1 14208U 83075B   26027.89028373  .00015528  00000+0  42300-3 0  9997
2 14208  97.6127  30.9663 0022868  20.9668 339.2509 15.37315521323881
COSMOS 1536             
1 14699U 84013A   26027.80217579  .00010604  00000+0  44483-3 0  9997
2 14699  82.5468 148.4632 0015577  68.9673 291.3228 15.23243796266391
SL-14 R/B               
1 14820U 84027B   26027.68407357  .00000746  00000+0  82407-4 0  9994
2 14820  82.5420 283.4766 0019457 107.6247 252.7096 14.85934142241545
SL-8 R/B                
1 15483U 85006B   26027.87709082  .00000454  00000+0  15911-3 0  9990
2 15483  74.0475 336.2436 0019743 261.3277 123.8851 14.37759647148160
SL-12 R/B(2)            
1 15772U 85042D   26027.67278859  .00000233  00000+0  12623-3 0  9994
2 15772  71.1076 174.3818 0035685 193.0816 178.6808 14.21968886108564
SL-14 R/B               
1 15945U 85069B   26027.47932268  .00000790  00000+0  86630-4 0  9992
2 15945  82.5243  63.6951 0018028 333.3557  26.6731 14.86383329166711
SL-16 R/B               
1 16182U 85097B   26027.27643860  .00000149  00000+0  98905-4 0  9998
2 16182  71.0000 227.7369 0009060 308.5413 224.8614 14.16591378 81363
SL-14 R/B               
1 16496U 86006B   26027.73635389  .00001267  00000+0  13180-3 0  9998
2 16496  82.5283 298.2791 0077886  49.2211 311.5729 14.86751834143125
COSMOS 1743             
1 16719U 86034A   26027.70378897  .00043834  00000+0  63865-3 0  9993
2 16719  82.5353 116.7401 0005450  87.2940 272.8938 15.55510745173879
